{
  "type": "FeatureCollection",
  "generator": "overpass-ide",
  "copyright": "The data included in this document is from www.openstreetmap.org. The data is made available under ODbL.",
  "timestamp": "2022-03-20T21:18:24Z",
  "features": [
    {
      "type": "Feature",
      "properties": {
        "@id": "node/280527162",
        "amenity": "nursing_home",
        "name": "Zonhove"
      },
      "geometry": {
        "type": "Point",
        "coordinates": [
          5.4898618,
          51.5091631
        ]
      },
      "id": "node/280527162"
    },
    {
      "type": "Feature",
      "properties": {
        "@id": "node/352813281",
        "addr:city": "Geldrop",
        "addr:housenumber": "6",
        "addr:postcode": "5666AZ",
        "addr:street": "Grote Bos",
        "amenity": "nursing_home",
        "source": "BAG",
        "source:date": "2014-05-20"
      },
      "geometry": {
        "type": "Point",
        "coordinates": [
          5.5767564,
          51.4257015
        ]
      },
      "id": "node/352813281"
    },
    {
      "type": "Feature",
      "properties": {
        "@id": "node/764042522",
        "addr:city": "Elst Ut",
        "addr:country": "NL",
        "addr:housenumber": "11",
        "addr:postcode": "3921EH",
        "addr:street": "Het Bosje",
        "amenity": "nursing_home",
        "name": "De Tabakshof",
        "source": "BAG",
        "source:date": "2014-03-24",
        "website": "https://www.tabakshof.nl/"
      },
      "geometry": {
        "type": "Point",
        "coordinates": [
          5.4944171,
          51.986353
        ]
      },
      "id": "node/764042522"
    },
    {
      "type": "Feature",
      "properties": {
        "@id": "node/903968226",
        "addr:city": "Rotterdam",
        "addr:country": "NL",
        "addr:housenumber": "40",
        "addr:postcode": "3068PZ",
        "addr:street": "Zevenkampse Ring",
        "amenity": "nursing_home",
        "name": "Zorgcentrum De Vijf Havens",
        "operator": "De Stromen Opmaat Groep"
      },
      "geometry": {
        "type": "Point",
        "coordinates": [
          4.5726762,
          51.9639269
        ]
      },
      "id": "node/903968226"
    },
    {
      "type": "Feature",
      "properties": {
        "@id": "node/903968227",
        "addr:city": "Rotterdam",
        "addr:country": "NL",
        "addr:housenumber": "77",
        "addr:postcode": "3052JA",
        "addr:street": "Hamakerstraat",
        "amenity": "nursing_home",
        "name": "Schiehoven",
        "operator": "Aafje"
      },
      "geometry": {
        "type": "Point",
        "coordinates": [
          4.4640245,
          51.9524367
        ]
      },
      "id": "node/903968227"
    },
    {
      "type": "Feature",
      "properties": {
        "@id": "node/1459715950",
        "addr:city": "Groningen",
        "addr:country": "NL",
        "addr:housename": "Hoornseheem",
        "addr:housenumber": "20",
        "addr:postcode": "9728HD",
        "addr:street": "Henri Dunantlaan",
        "amenity": "nursing_home",
        "name": "Heymanscentrum Hoornseheem"
      },
      "geometry": {
        "type": "Point",
        "coordinates": [
          6.559618,
          53.1944055
        ]
      },
      "id": "node/1459715950"
    },
    {
      "type": "Feature",
      "properties": {
        "@id": "node/1461155399",
        "addr:city": "Groningen",
        "addr:country": "NL",
        "addr:housename": "Neerwolde",
        "addr:housenumber": "20",
        "addr:postcode": "9728HD",
        "addr:street": "Henri Dunantlaan",
        "amenity": "nursing_home",
        "name": "Heymanscentrum Neerwolde",
        "source": "BAG",
        "source:date": "2014-03-24"
      },
      "geometry": {
        "type": "Point",
        "coordinates": [
          6.5601123,
          53.194228
        ]
      },
      "id": "node/1461155399"
    },
    {
      "type": "Feature",
      "properties": {
        "@id": "node/1530751816",
        "amenity": "nursing_home",
        "name": "Wing Hong"
      },
      "geometry": {
        "type": "Point",
        "coordinates": [
          4.29735,
          52.0673702
        ]
      },
      "id": "node/1530751816"
    },
    {
      "type": "Feature",
      "properties": {
        "@id": "node/1716901211",
        "addr:city": "Rotterdam",
        "addr:housenumber": "151",
        "addr:postcode": "3072HS",
        "addr:street": "Maashaven Oostzijde",
        "amenity": "nursing_home",
        "name": "Zorgcentrum Maasveld",
        "operator": "Laurens",
        "phone": "+31-10-4965656",
        "website": "https://laurens.nl/voor-klanten/locaties/11/maasveld"
      },
      "geometry": {
        "type": "Point",
        "coordinates": [
          4.4968214,
          51.9011808
        ]
      },
      "id": "node/1716901211"
    },
    {
      "type": "Feature",
      "properties": {
        "@id": "node/2029773160",
        "amenity": "nursing_home",
        "name": "Aafje zorghotel"
      },
      "geometry": {
        "type": "Point",
        "coordinates": [
          4.4625517,
          51.940821
        ]
      },
      "id": "node/2029773160"
    },
    {
      "type": "Feature",
      "properties": {
        "@id": "node/2048245586",
        "amenity": "nursing_home",
        "name": "Hospies"
      },
      "geometry": {
        "type": "Point",
        "coordinates": [
          5.6219226,
          52.3069407
        ]
      },
      "id": "node/2048245586"
    },
    {
      "type": "Feature",
      "properties": {
        "@id": "node/2217656761",
        "addr:street": "Zaaiersstraat",
        "amenity": "nursing_home",
        "name": "Verpleeghuis Westerkim",
        "social_facility": "group_home",
        "social_facility:for": "senior"
      },
      "geometry": {
        "type": "Point",
        "coordinates": [
          4.6221328,
          52.2647496
        ]
      },
      "id": "node/2217656761"
    },
    {
      "type": "Feature",
      "properties": {
        "@id": "node/2495787090",
        "addr:city": "Pijnacker",
        "addr:housenumber": "106",
        "addr:postcode": "2643HD",
        "addr:street": "Floralaan",
        "amenity": "nursing_home",
        "name": "Zorghotel De Keijzer",
        "source": "BAG",
        "source:date": "2013-11-26",
        "website": "https://pietervanforeest.nl/zorghotel-de-keijzer"
      },
      "geometry": {
        "type": "Point",
        "coordinates": [
          4.4438292,
          52.0059835
        ]
      },
      "id": "node/2495787090"
    },
    {
      "type": "Feature",
      "properties": {
        "@id": "node/2497604525",
        "addr:city": "Zwolle",
        "addr:country": "NL",
        "addr:housenumber": "8",
        "addr:postcode": "8011GT",
        "addr:street": "Hertenstraat",
        "amenity": "nursing_home",
        "name": "Zorghuis Anna Heerkens",
        "source": "BAG",
        "source:date": "2013-09-08"
      },
      "geometry": {
        "type": "Point",
        "coordinates": [
          6.0947757,
          52.5056094
        ]
      },
      "id": "node/2497604525"
    },
    {
      "type": "Feature",
      "properties": {
        "@id": "node/2497630736",
        "addr:city": "Zwolle",
        "addr:housenumber": "44-001",
        "addr:postcode": "8042AD",
        "addr:street": "Voorsterweg",
        "amenity": "nursing_home",
        "name": "Driezorg Westenhage",
        "operator": "Driezorg",
        "social_facility": "nursing_home",
        "source": "BAG",
        "source:date": "2016-02-20",
        "website": "https://www.driezorg.nl/nl/onze-locaties/woonzorgcentrum-westenhage/"
      },
      "geometry": {
        "type": "Point",
        "coordinates": [
          6.0513365,
          52.5255264
        ]
      },
      "id": "node/2497630736"
    },
    {
      "type": "Feature",
      "properties": {
        "@id": "node/2497856064",
        "addr:city": "Zwolle",
        "addr:housenumber": "350",
        "addr:postcode": "8031MK",
        "addr:street": "Gombertstraat",
        "amenity": "nursing_home",
        "name": "Woonzorgcentrum De Havezate",
        "ref:bag": "193010000046542",
        "source": "BAG",
        "source:date": "2013-09-08",
        "website": "https://www.driezorg.nl/nl/onze-locaties/woonzorgcentrum-de-havezate/"
      },
      "geometry": {
        "type": "Point",
        "coordinates": [
          6.0923312,
          52.5236743
        ]
      },
      "id": "node/2497856064"
    },
    {
      "type": "Feature",
      "properties": {
        "@id": "node/2500027716",
        "addr:city": "Zwolle",
        "addr:housenumber": "4",
        "addr:postcode": "8032HX",
        "addr:street": "Zijpe",
        "amenity": "nursing_home",
        "name": "Woonzorgcentrum Rivierenhof",
        "operator": "Driezorg",
        "source": "BAG",
        "source:date": "2013-09-08"
      },
      "geometry": {
        "type": "Point",
        "coordinates": [
          6.101802,
          52.5309433
        ]
      },
      "id": "node/2500027716"
    },
    {
      "type": "Feature",
      "properties": {
        "@id": "node/2500428193",
        "addr:city": "Zwolle",
        "addr:housenumber": "7",
        "addr:postcode": "8021WB",
        "addr:street": "Esdoornstraat",
        "amenity": "nursing_home",
        "name": "Woonzorgcentrum de Esdoorn",
        "operator": "Zonnehuisgroep IJssel-Vecht",
        "source": "BAG",
        "source:date": "2013-09-08",
        "website": "https://zgijv.nl/de-esdoorn"
      },
      "geometry": {
        "type": "Point",
        "coordinates": [
          6.0958637,
          52.5214419
        ]
      },
      "id": "node/2500428193"
    },
    {
      "type": "Feature",
      "properties": {
        "@id": "node/2504144422",
        "addr:city": "Raalte",
        "addr:housenumber": "1",
        "addr:postcode": "8102BE",
        "addr:street": "Zwanenwoerd",
        "amenity": "nursing_home",
        "name": "Swaenewoerd",
        "operator": "ZGR",
        "source": "BAG",
        "source:date": "2013-09-08",
        "website": "https://www.zgr.nl/woonzorglocatie/swaenewoerd/"
      },
      "geometry": {
        "type": "Point",
        "coordinates": [
          6.2748834,
          52.3885517
        ]
      },
      "id": "node/2504144422"
    },
    {
      "type": "Feature",
      "properties": {
        "@id": "node/2605363527",
        "addr:city": "Zoetermeer",
        "addr:housenumber": "91",
        "addr:postcode": "2721NP",
        "addr:street": "Florence Nightingalelaan",
        "amenity": "nursing_home",
        "name": "WZH Oosterheem",
        "source": "BAG",
        "source:date": "2013-11-26"
      },
      "geometry": {
        "type": "Point",
        "coordinates": [
          4.5405006,
          52.0591275
        ]
      },
      "id": "node/2605363527"
    },
    {
      "type": "Feature",
      "properties": {
        "@id": "node/2608692101",
        "addr:city": "'s-Gravenhage",
        "addr:housenumber": "32",
        "addr:postcode": "2492JD",
        "addr:street": "Harriët Freezerhof",
        "amenity": "nursing_home",
        "name": "WZH Leilinde",
        "source": "BAG",
        "source:date": "2013-11-26",
        "website": "https://www.wzh.nl/woonzorgcentra/den-haag/wzh-leilinde"
      },
      "geometry": {
        "type": "Point",
        "coordinates": [
          4.4041089,
          52.0635149
        ]
      },
      "id": "node/2608692101"
    },
    {
      "type": "Feature",
      "properties": {
        "@id": "node/2610249354",
        "addr:city": "Rotterdam",
        "addr:housenumber": "33",
        "addr:postcode": "3014GC",
        "addr:street": "Nieuwe Binnenweg",
        "amenity": "nursing_home",
        "name": "Verpleeghuis Antonius Binnenweg",
        "source": "BAG",
        "source:date": "2013-11-26"
      },
      "geometry": {
        "type": "Point",
        "coordinates": [
          4.4704987,
          51.9172941
        ]
      },
      "id": "node/2610249354"
    },
    {
      "type": "Feature",
      "properties": {
        "@id": "node/2638644044",
        "addr:city": "Amersfoort",
        "addr:housenumber": "44",
        "addr:postcode": "3817GP",
        "addr:street": "Zandbergenlaan",
        "amenity": "nursing_home",
        "name": "De Amerhorst",
        "source": "BAG",
        "source:date": "2014-01-22"
      },
      "geometry": {
        "type": "Point",
        "coordinates": [
          5.3881905,
          52.1397073
        ]
      },
      "id": "node/2638644044"
    },
    {
      "type": "Feature",
      "properties": {
        "@id": "node/2652914018",
        "addr:city": "Eefde",
        "addr:housenumber": "12",
        "addr:postcode": "7211AE",
        "addr:street": "Meijerinkstraat",
        "amenity": "nursing_home",
        "name": "Groot Hungerink",
        "operator": "Trajectum",
        "source": "BAG",
        "source:date": "2015-12-14",
        "website": "http://www.trajectum.info/zorgaanbod-2/eefde/ob-groot-hungerink-2"
      },
      "geometry": {
        "type": "Point",
        "coordinates": [
          6.2173172,
          52.1651435
        ]
      },
      "id": "node/2652914018"
    },
    {
      "type": "Feature",
      "properties": {
        "@id": "node/2669416380",
        "addr:city": "Doetinchem",
        "addr:housenumber": "6",
        "addr:postcode": "7009AM",
        "addr:street": "Groot Hagen",
        "amenity": "nursing_home",
        "contact:website": "http://www.sensire.nl/onze_diensten/wonen_met_zorg/onze_huizen/den_ooiman.aspx",
        "name": "Sensire Den Ooiman",
        "operator": "Sensire",
        "source": "BAG",
        "source:date": "2014-02-11",
        "website": "https://sensire.nl/"
      },
      "geometry": {
        "type": "Point",
        "coordinates": [
          6.2715412,
          51.9756381
        ]
      },
      "id": "node/2669416380"
    },
    {
      "type": "Feature",
      "properties": {
        "@id": "node/2671594443",
        "addr:city": "Terborg",
        "addr:housenumber": "115",
        "addr:postcode": "7061AP",
        "addr:street": "Industrieweg",
        "amenity": "nursing_home",
        "name": "Azora Antonia",
        "source": "BAG",
        "source:date": "2014-05-07",
        "website": "https://www.azora.nl/locaties/antonia/"
      },
      "geometry": {
        "type": "Point",
        "coordinates": [
          6.3593275,
          51.922126
        ]
      },
      "id": "node/2671594443"
    },
    {
      "type": "Feature",
      "properties": {
        "@id": "node/2674350672",
        "addr:city": "Amersfoort",
        "addr:housenumber": "3A",
        "addr:postcode": "3816GB",
        "addr:street": "Undinestraat",
        "amenity": "nursing_home",
        "source": "BAG",
        "source:date": "2014-02-11"
      },
      "geometry": {
        "type": "Point",
        "coordinates": [
          5.4096072,
          52.1537021
        ]
      },
      "id": "node/2674350672"
    },
    {
      "type": "Feature",
      "properties": {
        "@id": "node/2695645211",
        "addr:city": "Hazerswoude-Dorp",
        "addr:housenumber": "27",
        "addr:postcode": "2391BB",
        "addr:street": "Dorpsstraat",
        "amenity": "nursing_home",
        "name": "Driehof",
        "operator": "WIJdezorg",
        "phone": "+31-88-209 1000",
        "source": "BAG",
        "source:date": "2014-02-11",
        "website": "http://www.wijdezorg.com/wonen/driehof"
      },
      "geometry": {
        "type": "Point",
        "coordinates": [
          4.5965402,
          52.0967414
        ]
      },
      "id": "node/2695645211"
    },
    {
      "type": "Feature",
      "properties": {
        "@id": "node/2695681997",
        "addr:city": "Boskoop",
        "addr:housenumber": "4",
        "addr:postcode": "2771VP",
        "addr:street": "Boezemlaan",
        "amenity": "nursing_home",
        "name": "Floravita",
        "source": "BAG",
        "source:date": "2014-02-11"
      },
      "geometry": {
        "type": "Point",
        "coordinates": [
          4.6468404,
          52.0739208
        ]
      },
      "id": "node/2695681997"
    },
    {
      "type": "Feature",
      "properties": {
        "@id": "node/2721237780",
        "addr:city": "Arnhem",
        "addr:housenumber": "50",
        "addr:postcode": "6823NV",
        "addr:street": "Vogelkersweg",
        "amenity": "nursing_home",
        "contact:phone": "+31 883779990",
        "name": "Siza Vogelkersweg",
        "source": "BAG",
        "source:date": "2014-02-11",
        "website": "https://www.siza.nl/vogelkersweg#"
      },
      "geometry": {
        "type": "Point",
        "coordinates": [
          5.9431484,
          52.0082669
        ]
      },
      "id": "node/2721237780"
    },
    {
      "type": "Feature",
      "properties": {
        "@id": "node/2727096604",
        "addr:city": "Arnhem",
        "addr:housenumber": "158",
        "addr:postcode": "6824MD",
        "addr:street": "Velperweg",
        "amenity": "nursing_home",
        "facebook": "https://www.facebook.com/Attentzorgenbehandeling/?ref=aymt_homepage_panel",
        "name": "Regina Pacis",
        "phone": "+31 26 3847400",
        "source": "BAG;local knowledge;streetlevel imagery",
        "source:date": "2014-02-11",
        "twitter": "https://twitter.com/attentzenb",
        "website": "https://www.attentzorgenbehandeling.nl/zorg-en-behandeling/wonen/huizen/regina-pacis-arnhem"
      },
      "geometry": {
        "type": "Point",
        "coordinates": [
          5.9472466,
          51.9918792
        ]
      },
      "id": "node/2727096604"
    },
    {
      "type": "Feature",
      "properties": {
        "@id": "node/2731699696",
        "addr:city": "Kampen",
        "addr:housenumber": "19",
        "addr:postcode": "8265GJ",
        "addr:street": "Vijverhof",
        "amenity": "nursing_home",
        "name": "Woonzorgcentrum De Vijverhof",
        "source": "BAG",
        "source:date": "2014-02-11"
      },
      "geometry": {
        "type": "Point",
        "coordinates": [
          5.9046832,
          52.5551606
        ]
      },
      "id": "node/2731699696"
    },
    {
      "type": "Feature",
      "properties": {
        "@id": "node/2743502069",
        "addr:city": "Zuidland",
        "addr:housenumber": "1",
        "addr:postcode": "3214DA",
        "addr:street": "Driesprong",
        "amenity": "nursing_home",
        "emergency": "defibrillator",
        "indoor": "yes",
        "name": "Bernissesteyn",
        "source": "BAG",
        "source:date": "2014-03-24"
      },
      "geometry": {
        "type": "Point",
        "coordinates": [
          4.2543052,
          51.8233322
        ]
      },
      "id": "node/2743502069"
    },
    {
      "type": "Feature",
      "properties": {
        "@id": "node/2744867787",
        "addr:city": "Barendrecht",
        "addr:housenumber": "43",
        "addr:postcode": "2991HP",
        "addr:street": "Marjoleinlaan",
        "amenity": "nursing_home",
        "name": "Borgstede",
        "source": "BAG",
        "source:date": "2014-03-24",
        "website": "https://www.laurens.nl/voor-klanten/locaties/borgstede"
      },
      "geometry": {
        "type": "Point",
        "coordinates": [
          4.5434102,
          51.8550125
        ]
      },
      "id": "node/2744867787"
    },
    {
      "type": "Feature",
      "properties": {
        "@id": "node/2768519087",
        "addr:city": "Gouda",
        "addr:housenumber": "200",
        "addr:postcode": "2805RX",
        "addr:street": "Savelberghof",
        "amenity": "nursing_home",
        "name": "Zorgcentrum Savelberg",
        "source": "BAG",
        "source:date": "2014-03-24"
      },
      "geometry": {
        "type": "Point",
        "coordinates": [
          4.713862,
          52.0203053
        ]
      },
      "id": "node/2768519087"
    },
    {
      "type": "Feature",
      "properties": {
        "@id": "node/2779169012",
        "amenity": "nursing_home",
        "name": "Vreedonk"
      },
      "geometry": {
        "type": "Point",
        "coordinates": [
          4.6727053,
          51.7976683
        ]
      },
      "id": "node/2779169012"
    },
    {
      "type": "Feature",
      "properties": {
        "@id": "node/2779219152",
        "addr:city": "Delden",
        "addr:housenumber": "74",
        "addr:postcode": "7491AJ",
        "addr:street": "Langestraat",
        "amenity": "nursing_home",
        "name": "St. Elisabeth",
        "source": "BAG",
        "source:date": "2014-03-24"
      },
      "geometry": {
        "type": "Point",
        "coordinates": [
          6.7082636,
          52.2634383
        ]
      },
      "id": "node/2779219152"
    },
    {
      "type": "Feature",
      "properties": {
        "@id": "node/2780602180",
        "addr:city": "Baarle-Nassau",
        "addr:housenumber": "8",
        "addr:postcode": "5111VR",
        "addr:street": "Sint Janstraat",
        "amenity": "nursing_home",
        "name": "Thebe",
        "opening_hours": "24/7",
        "source": "BAG",
        "source:date": "2014-03-24",
        "website": "https://www.thebe.nl/"
      },
      "geometry": {
        "type": "Point",
        "coordinates": [
          4.9273899,
          51.4452293
        ]
      },
      "id": "node/2780602180"
    },
    {
      "type": "Feature",
      "properties": {
        "@id": "node/2790027400",
        "addr:city": "Dordrecht",
        "addr:housenumber": "38",
        "addr:postcode": "3317SP",
        "addr:street": "Groen van Prinstererweg",
        "amenity": "nursing_home",
        "name": "Verpleeghuis Crabbehoff",
        "source": "BAG",
        "source:date": "2014-03-24"
      },
      "geometry": {
        "type": "Point",
        "coordinates": [
          4.6657455,
          51.7907793
        ]
      },
      "id": "node/2790027400"
    },
    {
      "type": "Feature",
      "properties": {
        "@id": "node/2790177895",
        "addr:city": "Hengelo",
        "addr:housenumber": "123",
        "addr:postcode": "7555SL",
        "addr:street": "P.C. Borstlaan",
        "amenity": "nursing_home",
        "name": "Het Hof",
        "operator": "TriviumMeulenbeltZorg",
        "source": "BAG",
        "source:date": "2014-03-24",
        "website": "https://www.triviummeulenbeltzorg.nl/locaties/het-hof.html"
      },
      "geometry": {
        "type": "Point",
        "coordinates": [
          6.7644157,
          52.2648609
        ]
      },
      "id": "node/2790177895"
    },
    {
      "type": "Feature",
      "properties": {
        "@id": "node/2791634621",
        "addr:city": "Gouda",
        "addr:housenumber": "7",
        "addr:postcode": "2801AA",
        "addr:street": "van Bergen IJzendoornpark",
        "amenity": "nursing_home",
        "name": "Zorgcentrum Gouwestein",
        "source": "BAG",
        "source:date": "2014-03-24"
      },
      "geometry": {
        "type": "Point",
        "coordinates": [
          4.7005002,
          52.0142368
        ]
      },
      "id": "node/2791634621"
    },
    {
      "type": "Feature",
      "properties": {
        "@id": "node/2796102602",
        "amenity": "nursing_home",
        "emergency": "no",
        "source": "local knowledge"
      },
      "geometry": {
        "type": "Point",
        "coordinates": [
          5.7095993,
          50.8270765
        ]
      },
      "id": "node/2796102602"
    },
    {
      "type": "Feature",
      "properties": {
        "@id": "node/2800518420",
        "addr:city": "Doorn",
        "addr:housenumber": "2",
        "addr:postcode": "3941RB",
        "addr:street": "Bergweg",
        "amenity": "nursing_home",
        "name": "Zonnehuis",
        "operator": "QuaRijn",
        "phone": "+31343414541",
        "source": "BAG",
        "source:date": "2014-03-24",
        "website": "https://www.quarijn.nl/het-zonnehuis-doorn"
      },
      "geometry": {
        "type": "Point",
        "coordinates": [
          5.3514783,
          52.0351109
        ]
      },
      "id": "node/2800518420"
    },
    {
      "type": "Feature",
      "properties": {
        "@id": "node/2804899125",
        "addr:city": "Gouda",
        "addr:housenumber": "266",
        "addr:postcode": "2807GV",
        "addr:street": "Middenmolenplein",
        "amenity": "nursing_home",
        "name": "Irishof",
        "operator": "ZorgPartners Midden Holland",
        "source": "BAG",
        "source:date": "2014-03-24",
        "wheelchair": "yes"
      },
      "geometry": {
        "type": "Point",
        "coordinates": [
          4.7425924,
          52.0115889
        ]
      },
      "id": "node/2804899125"
    },
    {
      "type": "Feature",
      "properties": {
        "@id": "node/2820596521",
        "addr:city": "Bodegraven",
        "addr:housenumber": "23",
        "addr:postcode": "2411AP",
        "addr:street": "Burg. v. Dobben de Bruijnstraat",
        "amenity": "nursing_home",
        "entrance": "main",
        "name": "Vijverhof",
        "source": "BAG",
        "source:date": "2014-03-24"
      },
      "geometry": {
        "type": "Point",
        "coordinates": [
          4.7429286,
          52.0885333
        ]
      },
      "id": "node/2820596521"
    },
    {
      "type": "Feature",
      "properties": {
        "@id": "node/2831156920",
        "addr:city": "Bierum",
        "addr:country": "NL",
        "addr:housenumber": "23",
        "addr:postcode": "9906PH",
        "addr:street": "Luingaweg",
        "amenity": "nursing_home",
        "name": "Luingaborg",
        "source": "BAG",
        "source:date": "2014-03-24"
      },
      "geometry": {
        "type": "Point",
        "coordinates": [
          6.8587436,
          53.3795549
        ]
      },
      "id": "node/2831156920"
    },
    {
      "type": "Feature",
      "properties": {
        "@id": "node/2840277431",
        "addr:city": "Lekkerkerk",
        "addr:housenumber": "1",
        "addr:postcode": "2941TN",
        "addr:street": "Nicolaas Beetsstraat",
        "amenity": "nursing_home",
        "name": "Breeje Hendrik",
        "source": "BAG",
        "source:date": "2014-02-11"
      },
      "geometry": {
        "type": "Point",
        "coordinates": [
          4.6799825,
          51.8968216
        ]
      },
      "id": "node/2840277431"
    },
    {
      "type": "Feature",
      "properties": {
        "@id": "node/2852567303",
        "addr:city": "Someren",
        "addr:housenumber": "1",
        "addr:postcode": "5711HA",
        "addr:street": "Sonnehove",
        "amenity": "nursing_home",
        "name": "Savant Sonnehove",
        "operator": "Savant",
        "phone": "+31 493 497111",
        "source": "BAG",
        "source:date": "2014-05-07",
        "website": "https://www.savant-zorg.nl/locaties/savant-sonnehove"
      },
      "geometry": {
        "type": "Point",
        "coordinates": [
          5.7128103,
          51.3815901
        ]
      },
      "id": "node/2852567303"
    },
    {
      "type": "Feature",
      "properties": {
        "@id": "node/2860923322",
        "amenity": "nursing_home"
      },
      "geometry": {
        "type": "Point",
        "coordinates": [
          6.2908858,
          52.9965162
        ]
      },
      "id": "node/2860923322"
    },
    {
      "type": "Feature",
      "properties": {
        "@id": "node/2869788001",
        "amenity": "nursing_home",
        "name": "De Ilpenhof"
      },
      "geometry": {
        "type": "Point",
        "coordinates": [
          4.9520963,
          52.4661301
        ]
      },
      "id": "node/2869788001"
    },
    {
      "type": "Feature",
      "properties": {
        "@id": "node/2872219084",
        "addr:city": "Asten",
        "addr:housenumber": "1",
        "addr:postcode": "5721BZ",
        "addr:street": "Deken Meijerstraat",
        "amenity": "nursing_home",
        "name": "Savant de Lisse",
        "operator": "Savant",
        "phone": "+31 493 329 500",
        "source": "BAG",
        "source:date": "2014-05-20",
        "website": "https://www.savant-zorg.nl/locaties/savant-de-lisse"
      },
      "geometry": {
        "type": "Point",
        "coordinates": [
          5.7472328,
          51.4022979
        ]
      },
      "id": "node/2872219084"
    },
    {
      "type": "Feature",
      "properties": {
        "@id": "node/2873315866",
        "addr:city": "Kerkrade",
        "addr:housenumber": "25",
        "addr:postcode": "6467EA",
        "addr:street": "Schaesbergerstraat",
        "amenity": "nursing_home",
        "name": "Firenschat",
        "source": "BAG",
        "source:date": "2014-05-20"
      },
      "geometry": {
        "type": "Point",
        "coordinates": [
          6.0232012,
          50.8653958
        ]
      },
      "id": "node/2873315866"
    },
    {
      "type": "Feature",
      "properties": {
        "@id": "node/2874922726",
        "addr:city": "Geldrop",
        "addr:housenumber": "8",
        "addr:postcode": "5666AZ",
        "addr:street": "Grote Bos",
        "amenity": "nursing_home",
        "name": "Berkenheuvel",
        "source": "BAG",
        "source:date": "2014-05-20"
      },
      "geometry": {
        "type": "Point",
        "coordinates": [
          5.5755017,
          51.4254478
        ]
      },
      "id": "node/2874922726"
    },
    {
      "type": "Feature",
      "properties": {
        "@id": "node/2876879719",
        "addr:city": "Mierlo",
        "addr:housenumber": "9",
        "addr:postcode": "5731EG",
        "addr:street": "Heer van Scherpenzeelweg",
        "amenity": "nursing_home",
        "name": "Savant Hof van Bethanië",
        "operator": "Savant",
        "phone": "+31 492 502000",
        "source": "BAG",
        "source:date": "2014-05-23",
        "website": "https://www.savant-zorg.nl/locaties/savant-hof-van-bethanie"
      },
      "geometry": {
        "type": "Point",
        "coordinates": [
          5.6188914,
          51.4390835
        ]
      },
      "id": "node/2876879719"
    },
    {
      "type": "Feature",
      "properties": {
        "@id": "node/2877211918",
        "addr:city": "Woudenberg",
        "addr:housenumber": "4a",
        "addr:postcode": "3931PM",
        "addr:street": "De Steeg",
        "amenity": "nursing_home",
        "name": "Woonzorgboerderij Moriahoeve",
        "source": "BAG",
        "source:date": "2014-05-24"
      },
      "geometry": {
        "type": "Point",
        "coordinates": [
          5.4760738,
          52.0619572
        ]
      },
      "id": "node/2877211918"
    },
    {
      "type": "Feature",
      "properties": {
        "@id": "node/2880131958",
        "addr:city": "Graft",
        "addr:housenumber": "19",
        "addr:postcode": "1484EE",
        "addr:street": "Mieuwijdt",
        "amenity": "nursing_home",
        "name": "Zorgcentrum \"De Mieuwijdt\"",
        "source": "BAG",
        "source:date": "2014-05-25"
      },
      "geometry": {
        "type": "Point",
        "coordinates": [
          4.8400032,
          52.5599473
        ]
      },
      "id": "node/2880131958"
    },
    {
      "type": "Feature",
      "properties": {
        "@id": "node/2882469377",
        "addr:city": "Landgraaf",
        "addr:housenumber": "100",
        "addr:postcode": "6371XN",
        "addr:street": "Op de Heugden",
        "amenity": "nursing_home",
        "name": "Verpleeghuis De Dormig",
        "source": "BAG",
        "source:date": "2014-05-26"
      },
      "geometry": {
        "type": "Point",
        "coordinates": [
          6.0255763,
          50.9006967
        ]
      },
      "id": "node/2882469377"
    },
    {
      "type": "Feature",
      "properties": {
        "@id": "node/2896119884",
        "addr:city": "Zaandam",
        "addr:housenumber": "77",
        "addr:postcode": "1502CC",
        "addr:street": "H Gerhardstraat",
        "amenity": "nursing_home",
        "email": "info@mennistenerf.nl",
        "name": "Menistenerf",
        "phone": "075 6123262",
        "source": "BAG",
        "source:date": "2014-06-02",
        "website": "https://mennistenerf.nl/"
      },
      "geometry": {
        "type": "Point",
        "coordinates": [
          4.8323876,
          52.441085
        ]
      },
      "id": "node/2896119884"
    },
    {
      "type": "Feature",
      "properties": {
        "@id": "node/2899994995",
        "addr:city": "Helmond",
        "addr:housenumber": "16",
        "addr:postcode": "5704NP",
        "addr:street": "Hof Bruheze",
        "amenity": "nursing_home",
        "name": "Savant Rivierenhof",
        "operator": "Savant",
        "phone": "+31 492 530 300",
        "source": "BAG",
        "source:date": "2014-06-04",
        "website": "https://www.savant-zorg.nl/locaties/savant-rivierenhof"
      },
      "geometry": {
        "type": "Point",
        "coordinates": [
          5.7063212,
          51.46897
        ]
      },
      "id": "node/2899994995"
    },
    {
      "type": "Feature",
      "properties": {
        "@id": "node/2901024357",
        "addr:city": "Aarle-Rixtel",
        "addr:housenumber": "20",
        "addr:postcode": "5735GV",
        "addr:street": "Bosscheweg",
        "amenity": "nursing_home",
        "name": "Mariëngaarde",
        "operator": "De Zorgboog",
        "source": "BAG",
        "source:date": "2014-06-05",
        "website": "https://www.zorgboog.nl/locaties/mariengaarde-aarle-rixtel"
      },
      "geometry": {
        "type": "Point",
        "coordinates": [
          5.6380328,
          51.5074913
        ]
      },
      "id": "node/2901024357"
    },
    {
      "type": "Feature",
      "properties": {
        "@id": "node/2901555711",
        "addr:city": "Helmond",
        "addr:housenumber": "176",
        "addr:postcode": "5706AP",
        "addr:street": "Hoofdstraat",
        "amenity": "nursing_home",
        "name": "Savant Alphonsus",
        "operator": "Savant",
        "phone": "+31 492 573600",
        "source": "BAG",
        "source:date": "2014-06-05",
        "website": "https://www.savant-zorg.nl/locaties/savant-alphonsus"
      },
      "geometry": {
        "type": "Point",
        "coordinates": [
          5.6348985,
          51.4674102
        ]
      },
      "id": "node/2901555711"
    },
    {
      "type": "Feature",
      "properties": {
        "@id": "node/2903874386",
        "addr:city": "Helmond",
        "addr:housenumber": "70",
        "addr:postcode": "5701SB",
        "addr:street": "Kanaaldijk Noord Oost",
        "amenity": "nursing_home",
        "name": "Keyserinnedael",
        "operator": "De Zorgboog",
        "source": "BAG",
        "source:date": "2014-06-07",
        "website": "https://www.zorgboog.nl/locaties/keyserinnedael-helmond"
      },
      "geometry": {
        "type": "Point",
        "coordinates": [
          5.6523214,
          51.482196
        ]
      },
      "id": "node/2903874386"
    },
    {
      "type": "Feature",
      "properties": {
        "@id": "node/2903878040",
        "addr:city": "Helmond",
        "addr:housenumber": "8",
        "addr:postcode": "5701ZZ",
        "addr:street": "Ameidepark",
        "amenity": "nursing_home",
        "name": "Savant de Ameide",
        "operator": "Savant",
        "phone": "+31 492 582 500",
        "source": "BAG",
        "source:date": "2014-06-07",
        "website": "https://www.savant-zorg.nl/locaties/savant-de-ameide"
      },
      "geometry": {
        "type": "Point",
        "coordinates": [
          5.6590525,
          51.4805368
        ]
      },
      "id": "node/2903878040"
    },
    {
      "type": "Feature",
      "properties": {
        "@id": "node/3008673213",
        "addr:city": "Panningen",
        "addr:housenumber": "4",
        "addr:postcode": "5981XZ",
        "addr:street": "Koninginnelaan",
        "amenity": "nursing_home",
        "name": "Plattelandshoés",
        "source": "BAG",
        "source:date": "2014-08-10"
      },
      "geometry": {
        "type": "Point",
        "coordinates": [
          5.9763866,
          51.3319027
        ]
      },
      "id": "node/3008673213"
    },
    {
      "type": "Feature",
      "properties": {
        "@id": "node/3571711593",
        "addr:city": "Utrecht",
        "addr:housenumber": "1",
        "addr:postcode": "3573SH",
        "addr:street": "Blaarkopstraat",
        "amenity": "nursing_home",
        "name": "Voorveldse Hof Woonzorgcentrum",
        "source": "BAG",
        "source:date": "2015-06-04"
      },
      "geometry": {
        "type": "Point",
        "coordinates": [
          5.1446884,
          52.1030299
        ]
      },
      "id": "node/3571711593"
    },
    {
      "type": "Feature",
      "properties": {
        "@id": "node/3673345290",
        "addr:city": "Laren",
        "addr:housenumber": "1a",
        "addr:postcode": "7245AT",
        "addr:street": "Heuvelstraat",
        "amenity": "nursing_home",
        "name": "Marga Klompé",
        "operator": "stichting Zorgcombinatie Marga Klompé",
        "source": "BAG",
        "source:date": "2015-07-30"
      },
      "geometry": {
        "type": "Point",
        "coordinates": [
          6.3636687,
          52.1948006
        ]
      },
      "id": "node/3673345290"
    },
    {
      "type": "Feature",
      "properties": {
        "@id": "node/3738025180",
        "addr:city": "Oudewater",
        "addr:housename": "Wulverhorst",
        "addr:housenumber": "2",
        "addr:postcode": "3421JD",
        "addr:street": "Prins Bernhardstraat",
        "amenity": "nursing_home",
        "source": "BAG",
        "source:date": "2015-09-10"
      },
      "geometry": {
        "type": "Point",
        "coordinates": [
          4.8683519,
          52.0283554
        ]
      },
      "id": "node/3738025180"
    },
    {
      "type": "Feature",
      "properties": {
        "@id": "node/4282183292",
        "addr:city": "Drachten",
        "addr:housenumber": "8-K13",
        "addr:street": "De Warren",
        "amenity": "nursing_home",
        "name": "Zorgcentrum De Warrenhove"
      },
      "geometry": {
        "type": "Point",
        "coordinates": [
          6.100854,
          53.0979654
        ]
      },
      "id": "node/4282183292"
    },
    {
      "type": "Feature",
      "properties": {
        "@id": "node/4286655757",
        "amenity": "nursing_home",
        "capacity": "190",
        "name": "Woonzorgcentrum Schalkweide",
        "operator": "Stichting Sint Jacob",
        "website": "https://www.sintjacob.nl/"
      },
      "geometry": {
        "type": "Point",
        "coordinates": [
          4.6636902,
          52.3648223
        ]
      },
      "id": "node/4286655757"
    },
    {
      "type": "Feature",
      "properties": {
        "@id": "node/4472885163",
        "addr:city": "Nuenen",
        "addr:housenumber": "2",
        "addr:postcode": "5671ET",
        "addr:street": "Van Lenthof",
        "amenity": "nursing_home",
        "name": "Savant van Lenthof",
        "operator": "Savant",
        "phone": "+31 492 572 040",
        "source": "BAG",
        "source:date": "2016-10-31",
        "website": "https://www.savant-zorg.nl/locaties/savant-van-lenthof"
      },
      "geometry": {
        "type": "Point",
        "coordinates": [
          5.5504399,
          51.472281
        ]
      },
      "id": "node/4472885163"
    },
    {
      "type": "Feature",
      "properties": {
        "@id": "node/4539230567",
        "addr:city": "Emmen",
        "addr:housenumber": "8",
        "addr:postcode": "7811JA",
        "addr:street": "Wilhelminastraat",
        "amenity": "nursing_home",
        "name": "Woonzorgcentrum Zuidermarke",
        "source": "BAG",
        "source:date": "2014-01-22"
      },
      "geometry": {
        "type": "Point",
        "coordinates": [
          6.8968725,
          52.7781925
        ]
      },
      "id": "node/4539230567"
    },
    {
      "type": "Feature",
      "properties": {
        "@id": "node/4548136360",
        "amenity": "nursing_home",
        "name": "Rivas",
        "operator": "Rivas",
        "website": "https://www.rivas.nl"
      },
      "geometry": {
        "type": "Point",
        "coordinates": [
          4.6820879,
          51.8267036
        ]
      },
      "id": "node/4548136360"
    },
    {
      "type": "Feature",
      "properties": {
        "@id": "node/4723034749",
        "amenity": "nursing_home",
        "name": "Rustoord Woonzorgcentrum"
      },
      "geometry": {
        "type": "Point",
        "coordinates": [
          4.54969,
          52.2572984
        ]
      },
      "id": "node/4723034749"
    },
    {
      "type": "Feature",
      "properties": {
        "@id": "node/4752735620",
        "addr:city": "Helmond",
        "addr:housenumber": "85",
        "addr:postcode": "5702HW",
        "addr:street": "Nieuwveld",
        "amenity": "nursing_home",
        "name": "Savant de Eeuwsels",
        "operator": "Savant",
        "phone": "+31 492 504 100",
        "source": "BAG",
        "source:date": "2017-03-24",
        "website": "https://www.savant-zorg.nl/locaties/savant-de-eeuwsels"
      },
      "geometry": {
        "type": "Point",
        "coordinates": [
          5.6683774,
          51.4939279
        ]
      },
      "id": "node/4752735620"
    },
    {
      "type": "Feature",
      "properties": {
        "@id": "node/4930598078",
        "addr:city": "Leusden",
        "addr:housenumber": "24a",
        "addr:postcode": "3831JR",
        "addr:street": "Asschatterweg",
        "amenity": "nursing_home",
        "name": "Woonzorgcentrum 't Hamersveld",
        "source": "BAG",
        "source:date": "2017-06-22"
      },
      "geometry": {
        "type": "Point",
        "coordinates": [
          5.4310014,
          52.1367902
        ]
      },
      "id": "node/4930598078"
    },
    {
      "type": "Feature",
      "properties": {
        "@id": "node/5173741308",
        "amenity": "nursing_home",
        "emergency": "no",
        "name": "Den Hogeban"
      },
      "geometry": {
        "type": "Point",
        "coordinates": [
          4.4311913,
          51.9318331
        ]
      },
      "id": "node/5173741308"
    },
    {
      "type": "Feature",
      "properties": {
        "@id": "node/5225404522",
        "amenity": "nursing_home",
        "name:en": "st.Eustatius auxiliary home"
      },
      "geometry": {
        "type": "Point",
        "coordinates": [
          -62.9824912,
          17.4826887
        ]
      },
      "id": "node/5225404522"
    },
    {
      "type": "Feature",
      "properties": {
        "@id": "node/5241234003",
        "addr:city": "Utrecht",
        "addr:housenumber": "9",
        "addr:postcode": "3563TG",
        "addr:street": "Costa Ricadreef",
        "addr:unit": "Costa Ricadreef 9",
        "amenity": "nursing_home",
        "name": "Huis aan de Vecht"
      },
      "geometry": {
        "type": "Point",
        "coordinates": [
          5.0935752,
          52.1195524
        ]
      },
      "id": "node/5241234003"
    },
    {
      "type": "Feature",
      "properties": {
        "@id": "node/5269911122",
        "amenity": "nursing_home",
        "healthcare": "nursing_home",
        "name": "De Waadwente"
      },
      "geometry": {
        "type": "Point",
        "coordinates": [
          5.9944475,
          53.320774
        ]
      },
      "id": "node/5269911122"
    },
    {
      "type": "Feature",
      "properties": {
        "@id": "node/5311641422",
        "addr:city": "Roosendaal",
        "addr:housenumber": "89a",
        "addr:postcode": "4702ZB",
        "addr:street": "Kalsdonksestraat",
        "amenity": "nursing_home",
        "name": "Roosdonck Hospice",
        "phone": "+31885573935"
      },
      "geometry": {
        "type": "Point",
        "coordinates": [
          4.4672851,
          51.5392039
        ]
      },
      "id": "node/5311641422"
    },
    {
      "type": "Feature",
      "properties": {
        "@id": "node/5688814722",
        "amenity": "nursing_home"
      },
      "geometry": {
        "type": "Point",
        "coordinates": [
          6.5680375,
          53.2361067
        ]
      },
      "id": "node/5688814722"
    },
    {
      "type": "Feature",
      "properties": {
        "@id": "node/5703222123",
        "amenity": "nursing_home",
        "name": "Odensehuis"
      },
      "geometry": {
        "type": "Point",
        "coordinates": [
          6.5668913,
          53.2355575
        ]
      },
      "id": "node/5703222123"
    },
    {
      "type": "Feature",
      "properties": {
        "@id": "node/5759350621",
        "amenity": "nursing_home",
        "name": "Oosterparkheem"
      },
      "geometry": {
        "type": "Point",
        "coordinates": [
          6.577712,
          53.2278404
        ]
      },
      "id": "node/5759350621"
    },
    {
      "type": "Feature",
      "properties": {
        "@id": "node/5771716554",
        "amenity": "nursing_home",
        "name:en": "Wit gele kruis"
      },
      "geometry": {
        "type": "Point",
        "coordinates": [
          -70.0367123,
          12.52282
        ]
      },
      "id": "node/5771716554"
    },
    {
      "type": "Feature",
      "properties": {
        "@id": "node/5826855787",
        "amenity": "nursing_home",
        "name": "De Wenning"
      },
      "geometry": {
        "type": "Point",
        "coordinates": [
          6.6495092,
          52.9840395
        ]
      },
      "id": "node/5826855787"
    },
    {
      "type": "Feature",
      "properties": {
        "@id": "node/5858569586",
        "amenity": "nursing_home"
      },
      "geometry": {
        "type": "Point",
        "coordinates": [
          5.2216563,
          52.1367841
        ]
      },
      "id": "node/5858569586"
    },
    {
      "type": "Feature",
      "properties": {
        "@id": "node/5858569587",
        "amenity": "nursing_home"
      },
      "geometry": {
        "type": "Point",
        "coordinates": [
          5.2220674,
          52.1366237
        ]
      },
      "id": "node/5858569587"
    },
    {
      "type": "Feature",
      "properties": {
        "@id": "node/5997171387",
        "amenity": "nursing_home"
      },
      "geometry": {
        "type": "Point",
        "coordinates": [
          4.7935178,
          53.0545167
        ]
      },
      "id": "node/5997171387"
    },
    {
      "type": "Feature",
      "properties": {
        "@id": "node/6017454988",
        "amenity": "nursing_home",
        "name": "Koninginnetoren"
      },
      "geometry": {
        "type": "Point",
        "coordinates": [
          4.4972916,
          51.9292126
        ]
      },
      "id": "node/6017454988"
    },
    {
      "type": "Feature",
      "properties": {
        "@id": "node/6065099485",
        "addr:housenumber": "147",
        "addr:street": "Noord Cura Cabai",
        "amenity": "nursing_home",
        "name:en": "Hospice Atardi",
        "phone": "+297 5840085"
      },
      "geometry": {
        "type": "Point",
        "coordinates": [
          -69.9280351,
          12.4448519
        ]
      },
      "id": "node/6065099485"
    },
    {
      "type": "Feature",
      "properties": {
        "@id": "node/6128957262",
        "addr:city": "Overloon",
        "addr:housenumber": "1a",
        "addr:postcode": "5825DZ",
        "addr:street": "Hof van Loon",
        "amenity": "nursing_home",
        "name": "Pantein, Hof van Loon",
        "source": "BAG",
        "source:date": "2018-12-10",
        "website": "http://www.pantein.nl"
      },
      "geometry": {
        "type": "Point",
        "coordinates": [
          5.9482974,
          51.5702223
        ]
      },
      "id": "node/6128957262"
    },
    {
      "type": "Feature",
      "properties": {
        "@id": "node/6143491585",
        "amenity": "nursing_home",
        "name": "Het Hoogte Punt"
      },
      "geometry": {
        "type": "Point",
        "coordinates": [
          6.5636949,
          53.2338246
        ]
      },
      "id": "node/6143491585"
    },
    {
      "type": "Feature",
      "properties": {
        "@id": "node/6187576785",
        "amenity": "nursing_home",
        "name": "Rispinge"
      },
      "geometry": {
        "type": "Point",
        "coordinates": [
          6.10224,
          53.1026551
        ]
      },
      "id": "node/6187576785"
    },
    {
      "type": "Feature",
      "properties": {
        "@id": "node/6403988188",
        "amenity": "nursing_home",
        "name": "Willem Lodewijkstate"
      },
      "geometry": {
        "type": "Point",
        "coordinates": [
          6.8446965,
          53.3215731
        ]
      },
      "id": "node/6403988188"
    },
    {
      "type": "Feature",
      "properties": {
        "@id": "node/6404739343",
        "addr:city": "Delfgauw",
        "addr:housenumber": "40",
        "addr:postcode": "2645BC",
        "addr:street": "Noordeindseweg",
        "amenity": "nursing_home",
        "name": "Zorgboerderij Buitengewoon",
        "website": "http://www.zorgboerderijbuitengewoon.nl"
      },
      "geometry": {
        "type": "Point",
        "coordinates": [
          4.3940101,
          52.0129405
        ]
      },
      "id": "node/6404739343"
    },
    {
      "type": "Feature",
      "properties": {
        "@id": "node/6691406985",
        "amenity": "nursing_home",
        "name": "Talma State"
      },
      "geometry": {
        "type": "Point",
        "coordinates": [
          5.6089862,
          52.9698767
        ]
      },
      "id": "node/6691406985"
    },
    {
      "type": "Feature",
      "properties": {
        "@id": "node/6718159893",
        "amenity": "nursing_home",
        "name": "Derkshoes"
      },
      "geometry": {
        "type": "Point",
        "coordinates": [
          6.6103391,
          52.8506713
        ]
      },
      "id": "node/6718159893"
    },
    {
      "type": "Feature",
      "properties": {
        "@id": "node/6857773898",
        "amenity": "nursing_home",
        "name:en": "Cas di cuido y alegria pa nos grandinan"
      },
      "geometry": {
        "type": "Point",
        "coordinates": [
          -69.915759,
          12.4456857
        ]
      },
      "id": "node/6857773898"
    },
    {
      "type": "Feature",
      "properties": {
        "@id": "node/7119933685",
        "amenity": "nursing_home",
        "name": "De Berkenhof"
      },
      "geometry": {
        "type": "Point",
        "coordinates": [
          5.0001732,
          52.6411534
        ]
      },
      "id": "node/7119933685"
    },
    {
      "type": "Feature",
      "properties": {
        "@id": "node/7306778985",
        "addr:city": "Tuitjenhorn",
        "addr:housenumber": "1",
        "addr:postcode": "1747HK",
        "addr:street": "Sint Jozefpark",
        "amenity": "nursing_home",
        "name": "Sint Jozefpark",
        "opening_hours": "24/7",
        "phone": "0031226391311",
        "website": "http://woonzorggroepsamen.nl"
      },
      "geometry": {
        "type": "Point",
        "coordinates": [
          4.7484205,
          52.7393461
        ]
      },
      "id": "node/7306778985"
    },
    {
      "type": "Feature",
      "properties": {
        "@id": "node/7643875352",
        "addr:city": "'s-Gravenhage",
        "addr:housenumber": "325",
        "addr:postcode": "2515GK",
        "addr:street": "Jacob Catsstraat",
        "amenity": "nursing_home",
        "name": "Verpleeghuis de Schildershoek",
        "operator": "HWVzorg"
      },
      "geometry": {
        "type": "Point",
        "coordinates": [
          4.3138539,
          52.0659811
        ]
      },
      "id": "node/7643875352"
    },
    {
      "type": "Feature",
      "properties": {
        "@id": "node/7878409003",
        "addr:city": "Lichtenvoorde",
        "addr:housenumber": "75",
        "addr:postcode": "7132DA",
        "addr:street": "Kievitstraat",
        "amenity": "nursing_home",
        "name": "Careaz Antoniushove",
        "note": "Tijdelijke onderkomen in dit nieuwe gebouw. Planning nieuwbouw gereed: 2022",
        "operator": "Careaz",
        "social_facility:for": "senior",
        "source": "BAG",
        "source:date": "2020-09-05",
        "website": "https://www.careaz.nl/locaties/locatie-antoniushove"
      },
      "geometry": {
        "type": "Point",
        "coordinates": [
          6.552289,
          51.9752726
        ]
      },
      "id": "node/7878409003"
    }
  ]
}